SL-3 R/B                
1 19046U 88032B   26070.90510363  .00005807  00000+0  27127-3 0  9994
2 19046  97.5195  54.1484 0024552 223.3290 136.6015 15.19938075 52448
SL-16 R/B               
1 19120U 88039B   26070.38956014  .00000046  00000+0  44683-4 0  9990
2 19120  71.0136  64.9528 0022884 331.9159  28.0730 14.19615620958627
COSMOS 1953             
1 19210U 88050A   26070.72047232  .00009145  00000+0  32719-3 0  9999
2 19210  82.5103 156.2052 0012555 116.2836 243.9695 15.28565914 38094
SL-8 R/B                
1 19257U 88053B   26070.54287741  .00000284  00000+0  10069-3 0  9993
2 19257  74.0458 109.0502 0021451 288.0700 180.7333 14.38916992976862
COSMOS 1975             
1 19573U 88093A   26070.55835350  .00007165  00000+0  25983-3 0  9990
2 19573  82.5183 115.8093 0012328 157.1148 203.0644 15.28099507 19694
SL-14 R/B               
1 19574U 88093B   26070.95174319  .00000675  00000+0  74846-4 0  9998
2 19574  82.5309  39.9200 0021610  34.3764  24.2192 14.85659497  1352
SL-16 R/B               
1 19650U 88102B   26070.60016747  .00000300  00000+0  17578-3 0  9999
2 19650  71.0000 147.4780 0014095 358.6762   1.4322 14.16153368927163
INTERCOSMOS 24          
1 20261U 89080A   26070.54999009  .00000834  00000+0  24845-3 0  9996
2 20261  82.6023 103.1927 1186686 288.4983  59.0908 12.59561035667035
SL-14 R/B               
1 20262U 89080C   26070.79638739  .00000647  00000+0  18976-3 0  9994
2 20262  82.5975 171.8344 1230634 179.9360 180.2135 12.50496627660411
DELTA 1 R/B             
1 20323U 89089B   26070.55216419  .00000396  00000+0  10635-3 0  9997
2 20323  97.0705 277.6947 0070547 116.1978 244.6496 14.50664655896008
ARIANE 40 R/B           
1 20443U 90005H   26070.75928096  .00000305  00000+0  11038-3 0  9991
2 20443  98.3079 131.3590 0009979 192.2463 167.8485 14.39871979893102
DELTA 2 R/B(1)          
1 20453U 90008B   26070.94082277  .00054994  00000+0  63753-3 0  9992
2 20453  35.6033 160.0765 0084652 279.4964  79.6213 15.56302338926480
